{
  "type": "FeatureCollection",
  "features": [
    {
      "type": "Feature",
      "properties": {
        "name": "Fall River (RMNP)"
      },
      "geometry": {
        "type": "Polygon",
        "coordinates": [
          [
            [
              -105.640259,
              40.411731
            ],
            [
              -105.633482,
              40.411731
            ],
            [
              -105.633482,
              40.408242
            ],
            [
              -105.640259,
              40.408242
            ],
            [
              -105.640259,
              40.411731
            ]
          ]
        ]
      }
    },
    {
      "type": "Feature",
      "properties": {
        "name": "Moraine Park (RMNP) x44y447 x45y447"
      },
      "geometry": {
        "type": "Polygon",
        "coordinates": [
          [
            [
              -105.6302093,
              40.3575355
            ],
            [
              -105.5786703,
              40.3575355
            ],
            [
              -105.5786703,
              40.3484064
            ],
            [
              -105.6302093,
              40.3484064
            ],
            [
              -105.6302093,
              40.3575355
            ]
          ]
        ]
      }
    },
    {
      "type": "Feature",
      "properties": {
        "name": "Mill Creek (RMNP) x44y447"
      },
      "geometry": {
        "type": "Polygon",
        "coordinates": [
          [
            [
              -105.6142654,
              40.3410645
            ],
            [
              -105.5973077,
              40.3410645
            ],
            [
              -105.5973077,
              40.3341061
            ],
            [
              -105.6142654,
              40.3341061
            ],
            [
              -105.6142654,
              40.3410645
            ]
          ]
        ]
      }
    },
    {
      "type": "Feature",
      "properties": {
        "name": "Cache La Poudre - Running Deer Natural Area (Windsor) x49y449"
      },
      "geometry": {
        "type": "Polygon",
        "coordinates": [
          [
            [
              -105.0217405,
              40.5596582
            ],
            [
              -105.0057468,
              40.5596582
            ],
            [
              -105.0057468,
              40.5517459
            ],
            [
              -105.0217405,
              40.5517459
            ],
            [
              -105.0217405,
              40.5596582
            ]
          ]
        ]
      }
    },
    {
      "type": "Feature",
      "properties": {
        "name": "Cache La Poudre - Oxbow Natural Area / Eastman Park Natural Area (Windsor) x50y448"
      },
      "geometry": {
        "type": "Polygon",
        "coordinates": [
          [
            [
              -104.9172153,
              40.4645154
            ],
            [
              -104.9071756,
              40.4645154
            ],
            [
              -104.9071756,
              40.4591883
            ],
            [
              -104.9172153,
              40.4591883
            ],
            [
              -104.9172153,
              40.4645154
            ]
          ]
        ]
      }
    },
    {
      "type": "Feature",
      "properties": {
        "name": "Cache La Poudre - NW Greeley x51y448 x52y448"
      },
      "geometry": {
        "type": "Polygon",
        "coordinates": [
          [
            [
              -104.7890617,
              40.449929
            ],
            [
              -104.7545983,
              40.449929
            ],
            [
              -104.7545983,
              40.4385589
            ],
            [
              -104.7890617,
              40.4385589
            ],
            [
              -104.7890617,
              40.449929
            ]
          ]
        ]
      }
    },
    {
      "type": "Feature",
      "properties": {
        "name": "Big Thompson River - Oxbow Natural Area (Loveland) x48y448"
      },
      "geometry": {
        "type": "Polygon",
        "coordinates": [
          [
            [
              -105.1521435,
              40.4078061
            ],
            [
              -105.1344994,
              40.4078061
            ],
            [
              -105.1344994,
              40.4003986
            ],
            [
              -105.1521435,
              40.4003986
            ],
            [
              -105.1521435,
              40.4078061
            ]
          ]
        ]
      }
    },
    {
      "type": "Feature",
      "properties": {
        "name": "Box Prairie and Buckhorn Creek x46y450"
      },
      "geometry": {
        "type": "Polygon",
        "coordinates": [
          [
            [
              -105.4706348,
              40.5803
            ],
            [
              -105.4576755,
              40.5803
            ],
            [
              -105.4576755,
              40.5751897
            ],
            [
              -105.4706348,
              40.5751897
            ],
            [
              -105.4706348,
              40.5803
            ]
          ]
        ]
      }
    },
    {
      "type": "Feature",
      "properties": {
        "name": "Colorado River (Gaskil) x42y447"
      },
      "geometry": {
        "type": "Polygon",
        "coordinates": [
          [
            [
              -105.8708387,
              40.3511037
            ],
            [
              -105.855006,
              40.3511037
            ],
            [
              -105.855006,
              40.3292237
            ],
            [
              -105.8708387,
              40.3292237
            ],
            [
              -105.8708387,
              40.3511037
            ]
          ]
        ]
      }
    },
    {
      "type": "Feature",
      "properties": {
        "name": "Onahu Creek (RNMP Near Grand Lake) x42y447"
      },
      "geometry": {
        "type": "Polygon",
        "coordinates": [
          [
            [
              -105.8520462,
              40.3187568
            ],
            [
              -105.8440229,
              40.3187568
            ],
            [
              -105.8440229,
              40.2933578
            ],
            [
              -105.8520462,
              40.2933578
            ],
            [
              -105.8520462,
              40.3187568
            ]
          ]
        ]
      }
    },
    {
      "type": "Feature",
      "properties": {
        "name": "Tonahutu Creek (RMNP) x43y447"
      },
      "geometry": {
        "type": "Polygon",
        "coordinates": [
          [
            [
              -105.8152101,
              40.3151135
            ],
            [
              -105.8064379,
              40.3151135
            ],
            [
              -105.8064379,
              40.2967032
            ],
            [
              -105.8152101,
              40.2967032
            ],
            [
              -105.8152101,
              40.3151135
            ]
          ]
        ]
      }
    },
    {
      "type": "Feature",
      "properties": {
        "name": "Colorado River (Near Middle Dutch Creek) x42y448"
      },
      "geometry": {
        "type": "Polygon",
        "coordinates": [
          [
            [
              -105.8526074,
              40.4464988
            ],
            [
              -105.847802,
              40.4464988
            ],
            [
              -105.847802,
              40.4387176
            ],
            [
              -105.8526074,
              40.4387176
            ],
            [
              -105.8526074,
              40.4464988
            ]
          ]
        ]
      }
    },
    {
      "type": "Feature",
      "properties": {
        "name": "Colorado River (Near Beaver Creek) x42y448"
      },
      "geometry": {
        "type": "Polygon",
        "coordinates": [
          [
            [
              -105.8574137,
              40.4044458
            ],
            [
              -105.8387681,
              40.4044458
            ],
            [
              -105.8387681,
              40.3886815
            ],
            [
              -105.8574137,
              40.3886815
            ],
            [
              -105.8574137,
              40.4044458
            ]
          ]
        ]
      }
    },
    {
      "type": "Feature",
      "properties": {
        "name": "Colorado River and Onaho Creek (South of Gaskil) x42y447"
      },
      "geometry": {
        "type": "Polygon",
        "coordinates": [
          [
            [
              -105.87052,
              40.3217339
            ],
            [
              -105.8386495,
              40.3217339
            ],
            [
              -105.8386495,
              40.2905035
            ],
            [
              -105.87052,
              40.2905035
            ],
            [
              -105.87052,
              40.3217339
            ]
          ]
        ]
      }
    },
    {
      "type": "Feature",
      "properties": {
        "name": "Supply Creek x42y446"
      },
      "geometry": {
        "type": "Polygon",
        "coordinates": [
          [
            [
              -105.8790047,
              40.2388019
            ],
            [
              -105.8620309,
              40.2388019
            ],
            [
              -105.8620309,
              40.2244005
            ],
            [
              -105.8790047,
              40.2244005
            ],
            [
              -105.8790047,
              40.2388019
            ]
          ]
        ]
      }
    },
    {
      "type": "Feature",
      "properties": {
        "name": "Big Thompson River in South Loveland x49y448"
      },
      "geometry": {
        "type": "Polygon",
        "coordinates": [
          [
            [
              -105.0402756,
              40.3856923
            ],
            [
              -105.0223101,
              40.3856923
            ],
            [
              -105.0223101,
              40.3820765
            ],
            [
              -105.0402756,
              40.3820765
            ],
            [
              -105.0402756,
              40.3856923
            ]
          ]
        ]
      }
    }
  ]
}